OBJECT_NAME,OBJECT_ID,EPOCH,MEAN_MOTION,ECCENTRICITY,INCLINATION,RA_OF_ASC_NODE,ARG_OF_PERICENTER,MEAN_ANOMALY,EPHEMERIS_TYPE,CLASSIFICATION_TYPE,NORAD_CAT_ID,ELEMENT_SET_NO,REV_AT_EPOCH,BSTAR,MEAN_MOTION_DOT,MEAN_MOTION_DDOT
KUIPER-00584,2026-118H,2026-06-18T04:42:23.145408,15.34339341,.0011726,51.8613,48.6772,191.0521,169.0208,0,U,69274,999,413,.59723084E-3,.19872E-3,0
KUIPER-00587,2026-118J,2026-06-18T04:18:13.893408,15.36711629,.00080769,51.8633,48.5736,181.5023,178.5940,0,U,69275,999,413,.44400473E-3,.15828E-3,0
KUIPER-00590,2026-118K,2026-06-18T05:30:46.628640,15.37935962,.0004111,51.8686,48.1701,162.5552,197.5577,0,U,69276,999,414,.28411192E-3,.10388E-3,0
KUIPER-00592,2026-118L,2026-06-18T05:26:58.733088,15.38118282,.00037087,51.8712,48.1520,139.2813,220.8452,0,U,69277,999,414,.53697441E-3,.20131E-3,0
KUIPER-00593,2026-118M,2026-06-18T05:28:03.076032,15.38075577,.00038713,51.8715,48.1561,159.9365,200.1775,0,U,69278,999,420,.46759344E-3,.17448E-3,0
KUIPER-00594,2026-118N,2026-06-18T03:42:16.179552,15.38687184,.00009179,51.8715,48.4156,90.1457,269.9635,0,U,69279,999,413,.60640502E-3,.23223E-3,0
KUIPER-00595,2026-118P,2026-06-18T03:45:31.898016,15.38539726,.00015489,51.8711,48.4316,145.1680,214.9409,0,U,69280,999,416,-.12074777E-4,-.863E-5,0
KUIPER-00596,2026-118Q,2026-06-18T04:39:45.795456,15.34725465,.00125734,51.8560,48.6576,188.7540,171.3228,0,U,69281,999,413,.48147905E-3,.16143E-3,0
KUIPER-00597,2026-118R,2026-06-18T04:10:46.531488,15.37052712,.00070617,51.8650,48.5428,175.2564,184.8491,0,U,69282,999,413,.43865175E-3,.15805E-3,0
KUIPER-00599,2026-118S,2026-06-18T04:06:16.321536,15.37362910,.00059521,51.8691,48.5249,169.0260,191.0858,0,U,69283,999,413,.110152E-3,.3707E-4,0
KUIPER-00600,2026-118T,2026-06-18T04:17:08.441952,15.36707505,.00085935,51.8644,48.5699,176.4893,183.6155,0,U,69284,999,413,-.14102814E-3,-.5531E-4,0
KUIPER-00601,2026-118U,2026-06-18T05:34:37.797024,15.37682964,.00046516,51.8702,48.1873,157.6722,202.4468,0,U,69285,999,414,.49036477E-3,.18084E-3,0
KUIPER-00602,2026-118V,2026-06-18T05:25:38.741376,15.38208130,.00029553,51.8703,48.1462,152.7246,207.3897,0,U,69286,999,414,.52230443E-3,.19626E-3,0
KUIPER-00603,2026-118W,2026-06-18T02:29:22.897536,15.37601409,.00053282,51.8678,48.8246,163.8903,196.2254,0,U,69287,999,412,.44099289E-3,.16177E-3,0
KUIPER-00605,2026-118X,2026-06-18T04:11:42.263808,15.37071765,.00074604,51.8664,48.5479,170.9602,189.1520,0,U,69288,999,413,.43719415E-3,.15762E-3,0
KUIPER-00606,2026-118Y,2026-06-18T05:32:44.563776,15.37710808,.00046557,51.8694,48.1788,157.5315,202.5877,0,U,69289,999,414,.28111356E-3,.10197E-3,0
KUIPER-00607,2026-118Z,2026-06-18T05:38:23.396928,15.37470287,.00062327,51.8680,48.2036,165.2610,194.8560,0,U,69290,999,414,.53407199E-3,.19602E-3,0
KUIPER-00608,2026-118AA,2026-06-18T04:30:33.343488,15.35230196,.00083715,51.8614,48.6247,179.7369,180.3622,0,U,69291,999,413,.29404691E-3,.985E-4,0
KUIPER-00610,2026-118AB,2026-06-18T03:48:58.489920,15.38239197,.00023213,51.8722,48.4449,150.5561,209.5557,0,U,69292,999,413,-.41077676E-3,-.16083E-3,0
KUIPER-00613,2026-118AC,2026-06-18T03:03:50.272416,15.34755524,.00103011,51.8639,48.9720,185.8066,174.2802,0,U,69293,999,412,-.24979783E-2,-.85034E-3,0
KUIPER-00618,2026-118AD,2026-06-18T03:42:59.828832,15.38673459,.00016604,51.8719,48.4168,99.0474,261.0702,0,U,69294,999,413,.46387472E-3,.1765E-3,0
KUIPER-00620,2026-118AE,2026-06-18T05:21:41.362560,15.38331686,.00027926,51.8714,48.1275,125.3339,234.7910,0,U,69295,999,414,.3095718E-3,.11506E-3,0
STARLINK-37501,2026-119A,2026-06-18T06:00:02.000160,15.58971946,.00013312,97.2845,195.0790,97.0944,239.7699,0,U,69296,999,405,-.36057382E-1,-.2443407E-1,0
STARLINK-37496,2026-119B,2026-06-18T06:00:02.000160,15.59949678,.00010264,97.2850,195.0732,96.9390,230.1002,0,U,69297,999,405,-.16761012E-1,-.1211639E-1,0
STARLINK-37519,2026-119C,2026-06-18T06:00:02.000160,15.58551773,.00011813,97.2846,195.0872,98.4195,257.3837,0,U,69298,999,405,-.3863542E-1,-.2558312E-1,0
STARLINK-37455,2026-119D,2026-06-18T06:00:02.000160,15.49175825,.00015833,97.2850,195.0055,88.0598,84.6393,0,U,69299,999,405,-.21032762E-3,-.11508E-3,0
STARLINK-37456,2026-119E,2026-06-18T06:00:02.000160,15.57073973,.00011626,97.2849,195.0853,95.9473,254.8107,0,U,69300,999,405,-.39970535E-1,-.2510435E-1,0
STARLINK-37630,2026-119F,2026-06-18T06:00:02.000160,15.49190199,.00008008,97.2845,194.9271,102.5355,247.7692,0,U,69301,999,421,-.33884653E-3,-.18476E-3,0
STARLINK-37804,2026-119G,2026-06-18T06:00:02.000160,15.49191959,.0001239,97.2847,194.9240,100.0173,243.2277,0,U,69302,999,421,-.35602417E-3,-.19408E-3,0
STARLINK-37730,2026-119H,2026-06-18T06:00:02.000160,15.64095839,.00015906,97.2848,195.1300,51.9060,52.6152,0,U,69303,999,421,-.3146726E-1,-.2581473E-1,0
STARLINK-37731,2026-119J,2026-06-18T06:00:02.000160,15.49190894,.0001077,97.2849,194.9218,82.2890,254.9549,0,U,69304,999,421,-.25380485E-3,-.13871E-3,0
STARLINK-37734,2026-119K,2026-06-18T06:00:02.000160,15.56983847,.00008967,97.2851,195.0813,216.7617,132.9720,0,U,69305,999,421,-.38065307E-1,-.2398797E-1,0
STARLINK-37701,2026-119L,2026-06-18T06:00:02.000160,15.62815192,.00014607,97.2845,195.1282,57.4566,36.0672,0,U,69306,999,421,-.32459617E-1,-.2537945E-1,0
STARLINK-37732,2026-119M,2026-06-18T06:00:02.000160,15.68953314,.0001812,97.2843,195.1522,80.4996,79.1979,0,U,69307,999,421,-.25936071E-1,-.2590258E-1,0
STARLINK-37689,2026-119N,2026-06-18T06:00:02.000160,15.49206319,.00007319,97.2848,194.9294,77.0612,279.2736,0,U,69308,999,421,-.25629219E-3,-.14013E-3,0
STARLINK-37619,2026-119P,2026-06-18T06:00:02.000160,15.66579657,.00018529,97.2844,195.1511,61.6412,88.0896,0,U,69309,999,421,-.28047312E-1,-.2547792E-1,0
STARLINK-37794,2026-119Q,2026-06-18T06:00:02.000160,15.55574661,.00017033,97.2867,195.0792,90.8647,250.5762,0,U,69310,999,421,-.19411762E-1,-.1192613E-1,0
STARLINK-37795,2026-119R,2026-06-18T06:00:02.000160,15.49192459,.00003264,97.2846,194.9411,80.4873,301.2358,0,U,69311,999,421,-.84134885E-4,-.4664E-4,0
STARLINK-37790,2026-119S,2026-06-18T06:00:02.000160,15.61026189,.00014482,97.2849,195.1338,59.4364,44.1685,0,U,69312,999,421,-.3359999E-1,-.2461301E-1,0
STARLINK-37676,2026-119T,2026-06-18T06:00:02.000160,15.70115944,.00018249,97.2839,195.1745,85.2016,124.1509,0,U,69313,999,421,-.25302735E-1,-.2643958E-1,0
STARLINK-37617,2026-119U,2026-06-18T06:00:02.000160,15.62100188,.00013962,97.2846,195.1315,63.5140,42.5068,0,U,69314,999,421,-.21967222E-1,-.1689981E-1,0
STARLINK-37627,2026-119V,2026-06-18T06:00:02.000160,15.61270503,.00017438,97.2849,195.1434,61.0422,68.7015,0,U,69315,999,421,-.34750224E-1,-.2555497E-1,0
STARLINK-37738,2026-119W,2026-06-18T06:00:02.000160,15.62395716,.00014658,97.2844,195.1301,58.8246,40.1519,0,U,69316,999,421,-.24672953E-1,-.1928164E-1,0
STARLINK-37799,2026-119X,2026-06-18T06:00:02.000160,15.73105303,.00018484,97.2837,195.1819,90.3984,135.4263,0,U,69317,999,416,-.22172437E-1,-.2632131E-1,0
STARLINK-37802,2026-119Y,2026-06-18T06:00:02.000160,15.68060444,.00017726,97.2842,195.1690,94.5603,102.6980,0,U,69318,999,421,-.27218649E-1,-.2615921E-1,0
STARLINK-37803,2026-119Z,2026-06-18T06:00:02.000160,15.55038371,.00012223,97.2850,195.0809,92.5439,246.8527,0,U,69319,999,416,-.30629482E-1,-.1823091E-1,0
GUOWANG TEST OBJECT A,2026-120A,2026-06-07T11:06:12.288672,15.38803685,.00095994,54.9967,71.5399,294.3963,65.6063,0,U,69320,999,119,.24095813E-3,.9002E-4,0
GUOWANG TEST OBJECT B,2026-120B,2026-06-17T22:02:12.028992,15.38721277,.00102338,54.9983,24.4454,332.8758,27.1734,0,U,69321,999,280,.23453461E-3,.8729E-4,0
GUOWANG TEST OBJECT C,2026-120C,2026-06-07T21:56:00.773376,15.39284097,.00098504,54.9968,69.4792,309.3319,50.6835,0,U,69322,999,126,.41735581E-3,.16153E-3,0
GUOWANG TEST OBJECT D,2026-120D,2026-06-17T23:29:30.192288,15.39049885,.00117566,54.9980,24.1234,346.0651,14.0051,0,U,69323,999,281,.45962169E-4,.141E-4,0
QIANFAN-163,2026-121A,2026-06-18T07:54:35.101152,13.59758203,.00201925,89.0147,300.3997,185.5696,174.5238,0,U,69325,999,231,.14423855E-4,.23E-6,0
QIANFAN-164,2026-121B,2026-06-11T09:53:52.001952,13.60355109,.0019383,89.0157,301.0998,205.3125,154.7084,0,U,69326,999,137,.13228E-3,.112E-5,0
SZ-22 MODULE,2025-272C,2026-06-16T20:32:16.971072,15.60203853,.00062974,41.4806,324.1231,83.9376,276.2180,0,U,69328,999,327,.22050625E-3,.18201E-3,0
STARLINK-37733,2026-122A,2026-06-18T04:13:56.398944,15.80450219,.00014071,97.2827,198.6747,137.8378,222.2998,0,U,69329,999,231,-.23398453E-2,-.420355E-2,0
STARLINK-37772,2026-122B,2026-06-18T04:06:55.768320,15.79347144,.00002956,97.2824,198.6815,117.2851,242.8447,0,U,69330,999,231,-.14721776E-2,-.256284E-2,0
STARLINK-37768,2026-122C,2026-06-18T06:00:02.000160,15.69963034,.00014623,97.2840,198.7500,66.2304,348.3693,0,U,69331,999,347,-.25068722E-1,-.2607882E-1,0
STARLINK-37833,2026-122D,2026-06-18T06:00:02.000160,15.76383921,.00015964,97.2837,198.7677,71.7334,23.1819,0,U,69332,999,347,-.19315312E-1,-.2581756E-1,0
STARLINK-37818,2026-122E,2026-06-18T06:00:02.000160,15.74703359,.00015085,97.2841,198.7603,68.1589,9.6884,0,U,69333,999,352,-.20163236E-1,-.2514771E-1,0
STARLINK-37868,2026-122F,2026-06-18T03:55:38.424288,15.79513171,.0001095,97.2834,198.6928,280.6464,79.4680,0,U,69334,999,231,-.56277698E-2,-.915051E-2,0
STARLINK-37877,2026-122G,2026-06-18T06:00:02.000160,15.66267811,.00015308,97.2841,198.7537,63.4904,359.8596,0,U,69335,999,352,-.29031864E-1,-.2596138E-1,0
STARLINK-37791,2026-122H,2026-06-18T06:00:02.000160,15.74482301,.00017125,97.2836,198.7819,75.7078,53.0459,0,U,69336,999,352,-.20565471E-1,-.2596464E-1,0
STARLINK-37765,2026-122J,2026-06-18T03:52:20.620128,15.80940890,.00006481,97.2827,198.6962,11.7050,348.4234,0,U,69337,999,231,.89998554E-3,.17679E-2,0
STARLINK-37788,2026-122K,2026-06-18T06:00:02.000160,15.65790652,.00016518,97.2841,198.7583,66.2054,7.7456,0,U,69338,999,352,-.29530046E-1,-.2591194E-1,0
